{"type": "FeatureCollection", "features": [ {"type": "Feature", "properties": {"norad_id": 66590, "name": "STARLINK-35429", "group": "last-30-days", "lat": -2.939142743775619, "lon": 149.0335690210624, "alt_km": 443.9352129386489, "timestamp": "2025-12-19T16:54:42.965945+00:00", "meta": {"OBJECT_NAME": "STARLINK-35429", "OBJECT_ID": "2025-270C", "EPOCH": "2025-12-19T08:00:01.999872", "MEAN_MOTION": 15.40670327, "ECCENTRICITY": 0.00017454, "INCLINATION": 42.9999, "RA_OF_ASC_NODE": 154.3322, "ARG_OF_PERICENTER": 274.8517, "MEAN_ANOMALY": 179.0058, "EPHEMERIS_TYPE": 0, "CLASSIFICATION_TYPE": "U", "NORAD_CAT_ID": 66590, "ELEMENT_SET_NO": 999, "REV_AT_EPOCH": 556, "BSTAR": 0.001132263, "MEAN_MOTION_DOT": 0.00047241, "MEAN_MOTION_DDOT": 0}, "tle": {"line1": "1 66590U 25270C   25353.33335648  .00047241  00000+0  11323-2 0  9994", "line2": "2 66590  42.9999 154.3322 0001745 274.8517 179.0058 15.40670327  5562"}}, "geometry": {"type": "Point", "coordinates": [149.0335690210624, -2.939142743775619]}}, {"type": "Feature", "properties": {"norad_id": 66591, "name": "STARLINK-36058", "group": "last-30-days", "lat": 40.72952213350155, "lon": -140.47210054592003, "alt_km": 416.88879435515446, "timestamp": "2025-12-19T16:54:42.965956+00:00", "meta": {"OBJECT_NAME": "STARLINK-36058", "OBJECT_ID": "2025-270D", "EPOCH": "2025-12-19T07:18:40.896000", "MEAN_MOTION": 15.48863383, "ECCENTRICITY": 0.00048134, "INCLINATION": 42.9987, "RA_OF_ASC_NODE": 154.3373, "ARG_OF_PERICENTER": 246.2068, "MEAN_ANOMALY": 113.8287, "EPHEMERIS_TYPE": 0, "CLASSIFICATION_TYPE": "U", "NORAD_CAT_ID": 66591, "ELEMENT_SET_NO": 999, "REV_AT_EPOCH": 536, "BSTAR": -0.0004432672, "MEAN_MOTION_DOT": -0.00024743, "MEAN_MOTION_DDOT": 0}, "tle": {"line1": "1 66591U 25270D   25353.30464000 -.00024743  00000+0 -44327-3 0  9992", "line2": "2 66591  42.9987 154.3373 0004813 246.2068 113.8287 15.48863383  5361"}}, "geometry": {"type": "Point", "coordinates": [-140.47210054592003, 40.72952213350155]}}, {"type": "Feature", "properties": {"norad_id": 66592, "name": "STARLINK-36066", "group": "last-30-days", "lat": -25.440992538515342, "lon": 3.2214673686251283, "alt_km": 445.8003957426363, "timestamp": "2025-12-19T16:54:42.965966+00:00", "meta": {"OBJECT_NAME": "STARLINK-36066", "OBJECT_ID": "2025-270E", "EPOCH": "2025-12-19T03:31:08.236704", "MEAN_MOTION": 15.40718174, "ECCENTRICITY": 0.00012951, "INCLINATION": 42.9987, "RA_OF_ASC_NODE": 155.7395, "ARG_OF_PERICENTER": 272.062, "MEAN_ANOMALY": 88.0088, "EPHEMERIS_TYPE": 0, "CLASSIFICATION_TYPE": "U", "NORAD_CAT_ID": 66592, "ELEMENT_SET_NO": 999, "REV_AT_EPOCH": 523, "BSTAR": 0.00069686524, "MEAN_MOTION_DOT": 0.00028934, "MEAN_MOTION_DDOT": 0}, "tle": {"line1": "1 66592U 25270E   25353.14662311  .00028934  00000+0  69687-3 0  9990", "line2": "2 66592  42.9987 155.7395 0001295 272.0620  88.0088 15.40718174  5230"}}, "geometry": {"type": "Point", "coordinates": [3.2214673686251283, -25.440992538515342]}}, {"type": "Feature", "properties": {"norad_id": 66593, "name": "STARLINK-36031", "group": "last-30-days", "lat": -33.49325041745475, "lon": 107.06655969046167, "alt_km": 446.0848644613825, "timestamp": "2025-12-19T16:54:42.965977+00:00", "meta": {"OBJECT_NAME": "STARLINK-36031", "OBJECT_ID": "2025-270F", "EPOCH": "2025-12-19T08:00:01.999872", "MEAN_MOTION": 15.40666096, "ECCENTRICITY": 0.00017159, "INCLINATION": 42.9992, "RA_OF_ASC_NODE": 154.452, "ARG_OF_PERICENTER": 261.4572, "MEAN_ANOMALY": 142.6479, "EPHEMERIS_TYPE": 0, "CLASSIFICATION_TYPE": "U", "NORAD_CAT_ID": 66593, "ELEMENT_SET_NO": 999, "REV_AT_EPOCH": 546, "BSTAR": 0.0011889085, "MEAN_MOTION_DOT": 0.00049628, "MEAN_MOTION_DDOT": 0}, "tle": {"line1": "1 66593U 25270F   25353.33335648  .00049628  00000+0  11889-2 0  9995", "line2": "2 66593  42.9992 154.4520 0001715 261.4572 142.6479 15.40666096  5469"}}, "geometry": {"type": "Point", "coordinates": [107.06655969046167, -33.49325041745475]}}, {"type": "Feature", "properties": {"norad_id": 66594, "name": "STARLINK-36032", "group": "last-30-days", "lat": 29.099756485107804, "lon": -171.25258195186908, "alt_km": 440.2360271228081, "timestamp": "2025-12-19T16:54:42.965987+00:00", "meta": {"OBJECT_NAME": "STARLINK-36032", "OBJECT_ID": "2025-270G", "EPOCH": "2025-12-19T08:00:01.999872", "MEAN_MOTION": 15.42553917, "ECCENTRICITY": 0.00012309, "INCLINATION": 42.9998, "RA_OF_ASC_NODE": 154.2142, "ARG_OF_PERICENTER": 269.2687, "MEAN_ANOMALY": 233.1258, "EPHEMERIS_TYPE": 0, "CLASSIFICATION_TYPE": "U", "NORAD_CAT_ID": 66594, "ELEMENT_SET_NO": 999, "REV_AT_EPOCH": 519, "BSTAR": -0.057255522, "MEAN_MOTION_DOT": -0.02276198, "MEAN_MOTION_DDOT": 0}, "tle": {"line1": "1 66594U 25270G   25353.33335648 -.02276198  00000+0 -57256-1 0  9991", "line2": "2 66594  42.9998 154.2142 0001230 269.2687 233.1258 15.42553917  5199"}}, "geometry": {"type": "Point", "coordinates": [-171.25258195186908, 29.099756485107804]}}, {"type": "Feature", "properties": {"norad_id": 66595, "name": "STARLINK-35711", "group": "last-30-days", "lat": 42.85134007204715, "lon": -123.43362247882042, "alt_km": 409.0549555537955, "timestamp": "2025-12-19T16:54:42.965998+00:00", "meta": {"OBJECT_NAME": "STARLINK-35711", "OBJECT_ID": "2025-270H", "EPOCH": "2025-12-19T04:10:31.116000", "MEAN_MOTION": 15.50577282, "ECCENTRICITY": 0.00014849, "INCLINATION": 42.9991, "RA_OF_ASC_NODE": 155.0763, "ARG_OF_PERICENTER": 270.1875, "MEAN_ANOMALY": 89.8815, "EPHEMERIS_TYPE": 0, "CLASSIFICATION_TYPE": "U", "NORAD_CAT_ID": 66595, "ELEMENT_SET_NO": 999, "REV_AT_EPOCH": 545, "BSTAR": 0.00093453565, "MEAN_MOTION_DOT": 0.00054865, "MEAN_MOTION_DDOT": 0}, "tle": {"line1": "1 66595U 25270H   25353.17397125  .00054865  00000+0  93454-3 0  9995", "line2": "2 66595  42.9991 155.0763 0001484 270.1875  89.8815 15.50577282  5456"}}, "geometry": {"type": "Point", "coordinates": [-123.43362247882042, 42.85134007204715]}}, {"type": "Feature", "properties": {"norad_id": 66596, "name": "STARLINK-35811", "group": "last-30-days", "lat": -9.600596362183778, "lon": -16.959980019327237, "alt_km": 444.83301049726197, "timestamp": "2025-12-19T16:54:42.966015+00:00", "meta": {"OBJECT_NAME": "STARLINK-35811", "OBJECT_ID": "2025-270J", "EPOCH": "2025-12-19T03:37:35.407200", "MEAN_MOTION": 15.40709816, "ECCENTRICITY": 0.00014287, "INCLINATION": 42.9986, "RA_OF_ASC_NODE": 155.7722, "ARG_OF_PERICENTER": 278.1812, "MEAN_ANOMALY": 81.8883, "EPHEMERIS_TYPE": 0, "CLASSIFICATION_TYPE": "U", "NORAD_CAT_ID": 66596, "ELEMENT_SET_NO": 999, "REV_AT_EPOCH": 544, "BSTAR": 0.00053189394, "MEAN_MOTION_DOT": 0.00021986, "MEAN_MOTION_DDOT": 0}, "tle": {"line1": "1 66596U 25270J   25353.15110425  .00021986  00000+0  53189-3 0  9999", "line2": "2 66596  42.9986 155.7722 0001428 278.1812  81.8883 15.40709816  5445"}}, "geometry": {"type": "Point", "coordinates": [-16.959980019327237, -9.600596362183778]}}, {"type": "Feature", "properties": {"norad_id": 66597, "name": "STARLINK-35820", "group": "last-30-days", "lat": -37.75241371715455, "lon": 28.66373632196865, "alt_km": 446.3241506324166, "timestamp": "2025-12-19T16:54:42.966028+00:00", "meta": {"OBJECT_NAME": "STARLINK-35820", "OBJECT_ID": "2025-270K", "EPOCH": "2025-12-18T22:44:37.382496", "MEAN_MOTION": 15.40711169, "ECCENTRICITY": 0.00015443, "INCLINATION": 42.9988, "RA_OF_ASC_NODE": 156.8244, "ARG_OF_PERICENTER": 281.4535, "MEAN_ANOMALY": 78.6148, "EPHEMERIS_TYPE": 0, "CLASSIFICATION_TYPE": "U", "NORAD_CAT_ID": 66597, "ELEMENT_SET_NO": 999, "REV_AT_EPOCH": 541, "BSTAR": 0.00029372223, "MEAN_MOTION_DOT": 0.0001199, "MEAN_MOTION_DDOT": 0}, "tle": {"line1": "1 66597U 25270K   25352.94765489  .00011990  00000+0  29372-3 0  9993", "line2": "2 66597  42.9988 156.8244 0001544 281.4535  78.6148 15.40711169  5416"}}, "geometry": {"type": "Point", "coordinates": [28.66373632196865, -37.75241371715455]}}, {"type": "Feature", "properties": {"norad_id": 66598, "name": "STARLINK-35981", "group": "last-30-days", "lat": -19.41507276509182, "lon": 130.02608188505047, "alt_km": 445.2739727799435, "timestamp": "2025-12-19T16:54:42.966039+00:00", "meta": {"OBJECT_NAME": "STARLINK-35981", "OBJECT_ID": "2025-270L", "EPOCH": "2025-12-19T08:00:01.999872", "MEAN_MOTION": 15.40668917, "ECCENTRICITY": 0.00021782, "INCLINATION": 42.9994, "RA_OF_ASC_NODE": 154.3906, "ARG_OF_PERICENTER": 264.4756, "MEAN_ANOMALY": 164.5018, "EPHEMERIS_TYPE": 0, "CLASSIFICATION_TYPE": "U", "NORAD_CAT_ID": 66598, "ELEMENT_SET_NO": 999, "REV_AT_EPOCH": 530, "BSTAR": 0.0012033633, "MEAN_MOTION_DOT": 0.00050245, "MEAN_MOTION_DDOT": 0}, "tle": {"line1": "1 66598U 25270L   25353.33335648  .00050245  00000+0  12034-2 0  9990", "line2": "2 66598  42.9994 154.3906 0002178 264.4756 164.5018 15.40668917  5303"}}, "geometry": {"type": "Point", "coordinates": [130.02608188505047, -19.41507276509182]}}, {"type": "Feature", "properties": {"norad_id": 66599, "name": "STARLINK-35930", "group": "last-30-days", "lat": 42.905767295030216, "lon": -113.9706677398126, "alt_km": 410.02831026975946, "timestamp": "2025-12-19T16:54:42.966050+00:00", "meta": {"OBJECT_NAME": "STARLINK-35930", "OBJECT_ID": "2025-270M", "EPOCH": "2025-12-19T04:08:36.625632", "MEAN_MOTION": 15.50348464, "ECCENTRICITY": 0.0002903, "INCLINATION": 42.9985, "RA_OF_ASC_NODE": 155.067, "ARG_OF_PERICENTER": 324.189, "MEAN_ANOMALY": 35.8775, "EPHEMERIS_TYPE": 0, "CLASSIFICATION_TYPE": "U", "NORAD_CAT_ID": 66599, "ELEMENT_SET_NO": 999, "REV_AT_EPOCH": 534, "BSTAR": -2.964998e-06, "MEAN_MOTION_DOT": -5.14e-06, "MEAN_MOTION_DDOT": 0}, "tle": {"line1": "1 66599U 25270M   25353.17264613 -.00000514  00000+0 -29650-5 0  9997", "line2": "2 66599  42.9985 155.0670 0002903 324.1890  35.8775 15.50348464  5346"}}, "geometry": {"type": "Point", "coordinates": [-113.9706677398126, 42.905767295030216]}}]}